[{"OBJECT_NAME":"STARLINK-30350","OBJECT_ID":"2023-131Q","EPOCH":"2026-03-09T22:00:01.999584","MEAN_MOTION":15.27583892,"ECCENTRICITY":0.000162,"INCLINATION":43.0016,"RA_OF_ASC_NODE":167.7773,"ARG_OF_PERICENTER":284.1764,"MEAN_ANOMALY":336.5339,"EPHEMERIS_TYPE":0,"CLASSIFICATION_TYPE":"U","NORAD_CAT_ID":57746,"ELEMENT_SET_NO":999,"REV_AT_EPOCH":578,"BSTAR":-0.00051597014,"MEAN_MOTION_DOT":-0.00014435,"MEAN_MOTION_DDOT":0},{"OBJECT_NAME":"OBJECT E","OBJECT_ID":"2024-174E","EPOCH":"2026-03-09T23:40:24.424320","MEAN_MOTION":15.26241811,"ECCENTRICITY":0.00122518,"INCLINATION":97.4515,"RA_OF_ASC_NODE":80.1669,"ARG_OF_PERICENTER":217.7524,"MEAN_ANOMALY":142.2856,"EPHEMERIS_TYPE":0,"CLASSIFICATION_TYPE":"U","NORAD_CAT_ID":61242,"ELEMENT_SET_NO":999,"REV_AT_EPOCH":8070,"BSTAR":0.00031155901,"MEAN_MOTION_DOT":8.013e-5,"MEAN_MOTION_DDOT":0}]
